[{"OBJECT_NAME":"YAOGAN-43 02F","OBJECT_ID":"2024-156F","EPOCH":"2026-03-09T13:00:32.217984","MEAN_MOTION":15.22951134,"ECCENTRICITY":0.00011647,"INCLINATION":34.9922,"RA_OF_ASC_NODE":104.6026,"ARG_OF_PERICENTER":214.3893,"MEAN_ANOMALY":145.6747,"EPHEMERIS_TYPE":0,"CLASSIFICATION_TYPE":"U","NORAD_CAT_ID":60950,"ELEMENT_SET_NO":999,"REV_AT_EPOCH":8424,"BSTAR":0.00046453388,"MEAN_MOTION_DOT":0.00011154,"MEAN_MOTION_DDOT":0},{"OBJECT_NAME":"YAOGAN-43 03B","OBJECT_ID":"2024-190B","EPOCH":"2026-03-09T13:02:57.184224","MEAN_MOTION":15.23292973,"ECCENTRICITY":0.00065493,"INCLINATION":34.9874,"RA_OF_ASC_NODE":104.3622,"ARG_OF_PERICENTER":178.8126,"MEAN_ANOMALY":181.2605,"EPHEMERIS_TYPE":0,"CLASSIFICATION_TYPE":"U","NORAD_CAT_ID":61618,"ELEMENT_SET_NO":999,"REV_AT_EPOCH":7666,"BSTAR":0.00046413742,"MEAN_MOTION_DOT":0.00011265,"MEAN_MOTION_DDOT":0}]
